[{"OBJECT_NAME":"INTELSAT 36 (IS-36)","OBJECT_ID":"2016-053A","EPOCH":"2026-03-05T13:22:09.737760","MEAN_MOTION":1.00269299,"ECCENTRICITY":0.0001513,"INCLINATION":0.02,"RA_OF_ASC_NODE":99.8975,"ARG_OF_PERICENTER":233.3854,"MEAN_ANOMALY":99.0273,"EPHEMERIS_TYPE":0,"CLASSIFICATION_TYPE":"U","NORAD_CAT_ID":41747,"ELEMENT_SET_NO":999,"REV_AT_EPOCH":3491,"BSTAR":0,"MEAN_MOTION_DOT":-3.1e-7,"MEAN_MOTION_DDOT":0},{"OBJECT_NAME":"INTELSAT 33E (IS-33E)","OBJECT_ID":"2016-053B","EPOCH":"2026-03-05T16:07:14.455776","MEAN_MOTION":1.00165121,"ECCENTRICITY":0.0024364,"INCLINATION":1.3071,"RA_OF_ASC_NODE":85.7774,"ARG_OF_PERICENTER":189.9305,"MEAN_ANOMALY":216.4357,"EPHEMERIS_TYPE":0,"CLASSIFICATION_TYPE":"U","NORAD_CAT_ID":41748,"ELEMENT_SET_NO":999,"REV_AT_EPOCH":3521,"BSTAR":0,"MEAN_MOTION_DOT":-1.84e-6,"MEAN_MOTION_DDOT":0},{"OBJECT_NAME":"INSAT-3DR","OBJECT_ID":"2016-054A","EPOCH":"2026-03-05T16:03:37.303200","MEAN_MOTION":1.0027259,"ECCENTRICITY":0.0013138,"INCLINATION":0.0506,"RA_OF_ASC_NODE":95.8108,"ARG_OF_PERICENTER":186.1953,"MEAN_ANOMALY":196.2787,"EPHEMERIS_TYPE":0,"CLASSIFICATION_TYPE":"U","NORAD_CAT_ID":41752,"ELEMENT_SET_NO":999,"REV_AT_EPOCH":3478,"BSTAR":0,"MEAN_MOTION_DOT":-8.4e-7,"MEAN_MOTION_DDOT":0},{"OBJECT_NAME":"GSAT-18","OBJECT_ID":"2016-060A","EPOCH":"2026-03-05T16:03:37.303200","MEAN_MOTION":1.00271734,"ECCENTRICITY":0.0003315,"INCLINATION":0.001,"RA_OF_ASC_NODE":175.4582,"ARG_OF_PERICENTER":224.1152,"MEAN_ANOMALY":78.6976,"EPHEMERIS_TYPE":0,"CLASSIFICATION_TYPE":"U","NORAD_CAT_ID":41793,"ELEMENT_SET_NO":999,"REV_AT_EPOCH":3449,"BSTAR":0,"MEAN_MOTION_DOT":-8.4e-7,"MEAN_MOTION_DDOT":0},{"OBJECT_NAME":"SKY MUSTER 2 (NBN1B)","OBJECT_ID":"2016-060B","EPOCH":"2026-03-05T12:58:25.061376","MEAN_MOTION":1.0026797,"ECCENTRICITY":0.0001634,"INCLINATION":0.02,"RA_OF_ASC_NODE":162.105,"ARG_OF_PERICENTER":199.1792,"MEAN_ANOMALY":141.3969,"EPHEMERIS_TYPE":0,"CLASSIFICATION_TYPE":"U","NORAD_CAT_ID":41794,"ELEMENT_SET_NO":999,"REV_AT_EPOCH":3448,"BSTAR":0,"MEAN_MOTION_DOT":0,"MEAN_MOTION_DDOT":0},{"OBJECT_NAME":"HIMAWARI-9","OBJECT_ID":"2016-064A","EPOCH":"2026-03-05T18:54:38.721024","MEAN_MOTION":1.0027197,"ECCENTRICITY":0.0001223,"INCLINATION":0.0139,"RA_OF_ASC_NODE":169.8519,"ARG_OF_PERICENTER":204.9104,"MEAN_ANOMALY":213.1917,"EPHEMERIS_TYPE":0,"CLASSIFICATION_TYPE":"U","NORAD_CAT_ID":41836,"ELEMENT_SET_NO":999,"REV_AT_EPOCH":3417,"BSTAR":0,"MEAN_MOTION_DOT":-2.81e-6,"MEAN_MOTION_DDOT":0},{"OBJECT_NAME":"SHIJIAN-17 (SJ-17)","OBJECT_ID":"2016-065A","EPOCH":"2026-03-05T18:54:27.170208","MEAN_MOTION":0.99862087,"ECCENTRICITY":0.0001017,"INCLINATION":5.49,"RA_OF_ASC_NODE":73.8489,"ARG_OF_PERICENTER":311.4192,"MEAN_ANOMALY":90.2242,"EPHEMERIS_TYPE":0,"CLASSIFICATION_TYPE":"U","NORAD_CAT_ID":41838,"ELEMENT_SET_NO":999,"REV_AT_EPOCH":3417,"BSTAR":0,"MEAN_MOTION_DOT":1.02e-6,"MEAN_MOTION_DDOT":0},{"OBJECT_NAME":"YZ-2 R/B","OBJECT_ID":"2016-065C","EPOCH":"2026-03-04T14:17:46.986144","MEAN_MOTION":0.93473481,"ECCENTRICITY":0.0467099,"INCLINATION":9.0938,"RA_OF_ASC_NODE":67.6612,"ARG_OF_PERICENTER":229.5823,"MEAN_ANOMALY":126.3917,"EPHEMERIS_TYPE":0,"CLASSIFICATION_TYPE":"U","NORAD_CAT_ID":41840,"ELEMENT_SET_NO":999,"REV_AT_EPOCH":3187,"BSTAR":0,"MEAN_MOTION_DOT":-1.55e-6,"MEAN_MOTION_DDOT":0},{"OBJECT_NAME":"GOES 16","OBJECT_ID":"2016-071A","EPOCH":"2026-03-05T15:12:42.187104","MEAN_MOTION":1.00271863,"ECCENTRICITY":0.0002454,"INCLINATION":0.141,"RA_OF_ASC_NODE":89.5903,"ARG_OF_PERICENTER":220.5452,"MEAN_ANOMALY":336.6996,"EPHEMERIS_TYPE":0,"CLASSIFICATION_TYPE":"U","NORAD_CAT_ID":41866,"ELEMENT_SET_NO":999,"REV_AT_EPOCH":3406,"BSTAR":0,"MEAN_MOTION_DOT":-9.8e-7,"MEAN_MOTION_DDOT":0},{"OBJECT_NAME":"TIANLIAN 1-04","OBJECT_ID":"2016-072A","EPOCH":"2026-03-05T14:50:21.827616","MEAN_MOTION":1.00273499,"ECCENTRICITY":0.0040736,"INCLINATION":0.5993,"RA_OF_ASC_NODE":83.5509,"ARG_OF_PERICENTER":95.5197,"MEAN_ANOMALY":23.6144,"EPHEMERIS_TYPE":0,"CLASSIFICATION_TYPE":"U","NORAD_CAT_ID":41869,"ELEMENT_SET_NO":999,"REV_AT_EPOCH":3426,"BSTAR":0,"MEAN_MOTION_DOT":2.4e-7,"MEAN_MOTION_DDOT":0},{"OBJECT_NAME":"WGS F8 (USA 272)","OBJECT_ID":"2016-075A","EPOCH":"2026-03-04T10:17:38.615424","MEAN_MOTION":1.00270672,"ECCENTRICITY":2.668e-5,"INCLINATION":0.0083,"RA_OF_ASC_NODE":162.7764,"ARG_OF_PERICENTER":281.908,"MEAN_ANOMALY":21.698,"EPHEMERIS_TYPE":0,"CLASSIFICATION_TYPE":"U","NORAD_CAT_ID":41879,"ELEMENT_SET_NO":999,"REV_AT_EPOCH":3377,"BSTAR":0,"MEAN_MOTION_DOT":-2.14e-6,"MEAN_MOTION_DDOT":0},{"OBJECT_NAME":"FENGYUN 4A","OBJECT_ID":"2016-077A","EPOCH":"2026-03-05T14:35:08.287584","MEAN_MOTION":1.00278718,"ECCENTRICITY":0.0007358,"INCLINATION":2.0591,"RA_OF_ASC_NODE":81.4017,"ARG_OF_PERICENTER":135.6439,"MEAN_ANOMALY":288.6731,"EPHEMERIS_TYPE":0,"CLASSIFICATION_TYPE":"U","NORAD_CAT_ID":41882,"ELEMENT_SET_NO":999,"REV_AT_EPOCH":3389,"BSTAR":0,"MEAN_MOTION_DOT":-3.63e-6,"MEAN_MOTION_DDOT":0},{"OBJECT_NAME":"ECHOSTAR 19","OBJECT_ID":"2016-079A","EPOCH":"2026-03-05T03:41:38.459040","MEAN_MOTION":1.00272018,"ECCENTRICITY":0.00015487,"INCLINATION":0.0119,"RA_OF_ASC_NODE":113.9273,"ARG_OF_PERICENTER":231.2456,"MEAN_ANOMALY":136.0238,"EPHEMERIS_TYPE":0,"CLASSIFICATION_TYPE":"U","NORAD_CAT_ID":41893,"ELEMENT_SET_NO":999,"REV_AT_EPOCH":3366,"BSTAR":0,"MEAN_MOTION_DOT":-1.47e-6,"MEAN_MOTION_DDOT":0},{"OBJECT_NAME":"JCSAT-110A (JCSAT-15)","OBJECT_ID":"2016-082A","EPOCH":"2026-03-04T00:52:03.112032","MEAN_MOTION":1.00271059,"ECCENTRICITY":5.779e-5,"INCLINATION":0.0144,"RA_OF_ASC_NODE":143.4488,"ARG_OF_PERICENTER":213.3546,"MEAN_ANOMALY":288.0533,"EPHEMERIS_TYPE":0,"CLASSIFICATION_TYPE":"U","NORAD_CAT_ID":41903,"ELEMENT_SET_NO":999,"REV_AT_EPOCH":3370,"BSTAR":0,"MEAN_MOTION_DOT":-3.64e-6,"MEAN_MOTION_DDOT":0},{"OBJECT_NAME":"STAR ONE D1","OBJECT_ID":"2016-082B","EPOCH":"2026-03-05T13:35:51.471744","MEAN_MOTION":1.00270919,"ECCENTRICITY":0.0002179,"INCLINATION":0.0227,"RA_OF_ASC_NODE":99.8581,"ARG_OF_PERICENTER":249.6791,"MEAN_ANOMALY":293.7134,"EPHEMERIS_TYPE":0,"CLASSIFICATION_TYPE":"U","NORAD_CAT_ID":41904,"ELEMENT_SET_NO":999,"REV_AT_EPOCH":3373,"BSTAR":0,"MEAN_MOTION_DOT":-2.18e-6,"MEAN_MOTION_DDOT":0},{"OBJECT_NAME":"TJS-2","OBJECT_ID":"2017-001A","EPOCH":"2026-03-05T14:18:47.354688","MEAN_MOTION":1.00272103,"ECCENTRICITY":0.0001791,"INCLINATION":0.5657,"RA_OF_ASC_NODE":86.9293,"ARG_OF_PERICENTER":252.4465,"MEAN_ANOMALY":105.1722,"EPHEMERIS_TYPE":0,"CLASSIFICATION_TYPE":"U","NORAD_CAT_ID":41911,"ELEMENT_SET_NO":999,"REV_AT_EPOCH":3367,"BSTAR":0,"MEAN_MOTION_DOT":-1.3e-7,"MEAN_MOTION_DDOT":0},{"OBJECT_NAME":"YZ-1 R/B","OBJECT_ID":"2015-019C","EPOCH":"2026-03-07T16:20:24.569952","MEAN_MOTION":0.27916977,"ECCENTRICITY":0.68326098,"INCLINATION":11.8076,"RA_OF_ASC_NODE":106.0569,"ARG_OF_PERICENTER":296.2511,"MEAN_ANOMALY":358.7926,"EPHEMERIS_TYPE":0,"CLASSIFICATION_TYPE":"U","NORAD_CAT_ID":41929,"ELEMENT_SET_NO":999,"REV_AT_EPOCH":1049,"BSTAR":0,"MEAN_MOTION_DOT":-5.49e-6,"MEAN_MOTION_DDOT":0}]
