INTELSAT 36 (IS-36)     
1 41747U 16053A   26064.55705715 -.00000031  00000+0  00000+0 0  9994
2 41747   0.0200  99.8975 0001513 233.3854  99.0273  1.00269299 34917
INTELSAT 33E (IS-33E)   
1 41748U 16053B   26064.67169509 -.00000184  00000+0  00000+0 0  9992
2 41748   1.3071  85.7774 0024364 189.9305 216.4357  1.00165121 35216
INSAT-3DR               
1 41752U 16054A   26064.66918175 -.00000084  00000+0  00000+0 0  9997
2 41752   0.0506  95.8108 0013138 186.1953 196.2787  1.00272590 34780
GSAT-18                 
1 41793U 16060A   26064.66918175 -.00000084  00000+0  00000+0 0  9999
2 41793   0.0010 175.4582 0003315 224.1152  78.6976  1.00271734 34496
SKY MUSTER 2 (NBN1B)    
1 41794U 16060B   26064.54056784  .00000000  00000+0  00000+0 0  9993
2 41794   0.0200 162.1050 0001634 199.1792 141.3969  1.00267970 34480
HIMAWARI-9              
1 41836U 16064A   26064.78794816 -.00000281  00000+0  00000+0 0  9997
2 41836   0.0139 169.8519 0001223 204.9104 213.1917  1.00271970 34170
SHIJIAN-17 (SJ-17)      
1 41838U 16065A   26064.78781447  .00000102  00000+0  00000+0 0  9997
2 41838   5.4900  73.8489 0001017 311.4192  90.2242  0.99862087 34176
YZ-2 R/B                
1 41840U 16065C   26063.59568271 -.00000155  00000+0  00000+0 0  9995
2 41840   9.0938  67.6612 0467099 229.5823 126.3917  0.93473481 31879
GOES 16                 
1 41866U 16071A   26064.63382161 -.00000098  00000+0  00000+0 0  9994
2 41866   0.1410  89.5903 0002454 220.5452 336.6996  1.00271863 34065
TIANLIAN 1-04           
1 41869U 16072A   26064.61830819  .00000024  00000+0  00000+0 0  9992
2 41869   0.5993  83.5509 0040736  95.5197  23.6144  1.00273499 34262
WGS F8 (USA 272)        
1 41879U 16075A   26063.42891916 -.00000214  00000+0  00000+0 0  9991
2 41879   0.0083 162.7764 0000266 281.9080  21.6980  1.00270672 33778
FENGYUN 4A              
1 41882U 16077A   26064.60773481 -.00000363  00000+0  00000+0 0  9999
2 41882   2.0591  81.4017 0007358 135.6439 288.6731  1.00278718 33899
ECHOSTAR 19             
1 41893U 16079A   26064.15391735 -.00000147  00000+0  00000+0 0  9991
2 41893   0.0119 113.9273 0001548 231.2456 136.0238  1.00272018 33667
JCSAT-110A (JCSAT-15)   
1 41903U 16082A   26063.03614713 -.00000364  00000+0  00000+0 0  9998
2 41903   0.0144 143.4488 0000577 213.3546 288.0533  1.00271059 33700
STAR ONE D1             
1 41904U 16082B   26064.56656796 -.00000218  00000+0  00000+0 0  9993
2 41904   0.0227  99.8581 0002179 249.6791 293.7134  1.00270919 33732
TJS-2                   
1 41911U 17001A   26064.59638142 -.00000013  00000+0  00000+0 0  9994
2 41911   0.5657  86.9293 0001791 252.4465 105.1722  1.00272103 33677
YZ-1 R/B                
1 41929U 15019C   26066.68083993 -.00000549  00000+0  00000+0 0  9994
2 41929  11.8076 106.0569 6832609 296.2511 358.7926  0.27916977 10499
